0 APRIZESAT 3
1 35686U 09041F   19117.15907179  .00000050  00000-0  12316-4 0  9992
2 35686  98.2399 154.7078 0072182 327.8356  31.8465 14.87293853528109
0 SL-24 R/B
1 35688U 09041H   19117.44409111 -.00000003  00000-0  19002-4 0  9997
2 35688  98.1139 258.7608 0429418 221.4525 172.8711 13.74224209488717
0 SL-24 R/B
1 35688U 09041H   19116.95016723 -.00000005 +00000-0 +17978-4 0  9997
2 35688 098.1138 258.3393 0429393 222.8005 249.3248 13.74224184488585
0 SL-24 DEB
1 35689U 09041J   19116.76117127 +.00000105 +00000-0 +22704-4 0  9990
2 35689 097.8388 006.6568 0024389 109.5433 250.8413 14.75453926523748
0 SL-24 DEB
1 35689U 09041J   19117.30370738  .00000103  00000-0  22426-4 0  9999
2 35689  97.8388   7.1825 0024399 107.8852 252.5022 14.75454049523862
0 ASIASAT 5
1 35696U 09042A   19116.92737632 -.00000320 +00000-0 +00000-0 0  9997
2 35696 000.0481 102.3366 0001671 279.9073 266.7587 01.00271979035530
0 ASIASAT 5
1 35696U 09042A   19117.86066302 -.00000318  00000-0  00000+0 0  9996
2 35696   0.0505 101.2923 0001672 282.8513 241.7612  1.00271560 35524
0 BREEZE-M R/B
1 35697U 09042B   19116.29782683 -.00000108 +00000-0 +00000-0 0  9998
2 35697 007.1419 051.7930 3162327 048.8878 334.2996 01.60000123056444
0 BREEZE-M R/B
1 35697U 09042B   19116.92278165 -.00000106  00000-0  00000+0 0  9990
2 35697   7.1428  51.7679 3162332  48.9444 334.2690  1.60000140 56440
0 COSMOS 2251 DEB
1 35700U 93036APV 19116.90810171  .00003053  00000-0  58476-3 0  9995
2 35700  74.0057 305.8589 0035774 221.0821 138.7653 14.63860425527499
0 COSMOS 2251 DEB
1 35700U 93036APV 19116.90810171 +.00003053 +00000-0 +58476-3 0  9995
2 35700 074.0057 305.8589 0035774 221.0821 138.7653 14.63860425363161
0 COSMOS 2251 DEB
1 35702U 93036APX 19117.74714678  .00001164  00000-0  25384-3 0  9998
2 35702  74.0412 247.2821 0027561 211.8269 148.1232 14.58847561519783
0 COSMOS 2251 DEB
1 35720U 93036AQR 19117.13504747  .00000982  00000-0  28777-3 0  9991
2 35720  74.0018  48.3506 0099663  39.6526 321.1862 14.42378264523216
0 COSMOS 2251 DEB
1 35723U 93036AQU 19117.25163868  .00003807  00000-0  45196-3 0  9995
2 35723  73.9961 187.7132 0017200 101.0016 259.3099 14.84742478527791
0 COSMOS 2251 DEB
1 35724U 93036AQV 19117.55412084  .00000113  00000-0  33906-4 0  9990
2 35724  74.0350 201.9658 0066863 242.5787 116.8564 14.52865754524264
0 IRIDIUM 33 DEB
1 35739U 97051RS  19115.96971328 +.00004008 +00000-0 +76217-3 0  9999
2 35739 086.3935 004.2948 0057384 148.5591 211.9072 14.62836722524745
0 IRIDIUM 33 DEB
1 35742U 97051RV  19117.43157244  .00002831  00000-0  60526-3 0  9998
2 35742  86.4247  12.7936 0057409  20.5354 339.8143 14.57446380523751
0 IRIDIUM 33 DEB
1 35744U 97051RX  19116.83239122 +.00000455 +00000-0 +11142-3 0  9999
2 35744 086.3333 310.2953 0035431 086.1835 274.3420 14.49808702521127
0 IRIDIUM 33 DEB
1 35745U 97051RY  19117.43986571  .00005061  00000-0  12383-2 0  9999
2 35745  86.3553  14.6962 0057075 304.4390  55.1429 14.51383578516329
0 IRIDIUM 33 DEB
1 35749U 97051SC  19117.32469293  .00001342  00000-0  31108-3 0  9993
2 35749  86.3777 335.0193 0014015 311.6884  48.3122 14.54328859517062
0 NAVSTAR 64 (USA 206)
1 35752U 09043A   19117.03310622  .00000040  00000-0  00000+0 0  9997
2 35752  54.4121 131.9726 0054457  38.4538 321.5780  2.00563441 71027
0 DELTA 2 R/B(2) (PAM-D)
1 35754U 09043C   19117.29769526  .00074391  31922-6  77692-3 0  9996
2 35754  39.9025  46.2732 4313966  73.9429 328.4229  6.98994599188920
0 DELTA 2 R/B(2) (PAM-D)
1 35754U 09043C   19117.15469150  .00077298  31896-6  80737-3 0  9994
2 35754  39.9025  46.4797 4314072  73.6815 328.5766  6.98974153188918
0 JCSAT 12
1 35755U 09044A   19117.15637053 -.00000043  00000-0  00000+0 0  9998
2 35755   0.0286 257.0855 0001845 165.4498  17.5133  1.00272282 35518
0 JCSAT 12
1 35755U 09044A   19116.86927722 -.00000043 +00000-0 +00000-0 0  9991
2 35755 000.0293 257.4173 0001847 164.6993 274.2952 01.00272231035454
0 OPTUS D3
1 35756U 09044B   19116.86666014 -.00000159 +00000-0 +00000-0 0  9994
2 35756 000.0436 043.9669 0004275 346.4109 292.1910 01.00272625035404
0 OPTUS D3
1 35756U 09044B   19117.15384069 -.00000159  00000-0  00000+0 0  9993
2 35756   0.0438  45.2097 0004270 345.0574  35.9707  1.00272610 35481
0 ARIANE 5 DEB (SYLDA)
1 35758U 09044D   19117.17236080  .00231902  00000-0  24069-2 0  9991
2 35758   2.3984  95.7469 3556421 237.0808  83.6509  8.41138101144579
0 ARIANE 5 DEB (SYLDA)
1 35758U 09044D   19117.29099868  .00241389  00000-0  25082-2 0  9991
2 35758   2.3985  95.4504 3556066 237.6761  82.9114  8.41199562144589
0 ARIANE 5 DEB (SYLDA)
1 35758U 09044D   19117.76548187  .00244087  00000-0  25319-2 0  9997
2 35758   2.3987  94.2598 3554900 240.0608  80.0028  8.41436256144626
0 COSMOS 2251 DEB
1 35759U 93036ARD 19117.44379665  .00000090  00000-0  25381-4 0  9995
2 35759  74.0395 153.8317 0085950 170.1818 190.1052 14.57852788532328
0 COSMOS 2251 DEB
1 35760U 93036ARE 19116.66013779 +.00002242 +00000-0 +21276-3 0  9990
2 35760 073.9855 332.3974 0033337 021.6111 034.6382 14.93809168537080
0 COSMOS 2251 DEB
1 35764U 93036ARJ 19117.76889043  .00000476  00000-0  12680-3 0  9997
2 35764  74.0323 262.4314 0040387 272.7261  86.9278 14.50833926536787
0 COSMOS 2251 DEB
1 35765U 93036ARK 19117.06560433  .00000721  00000-0  16130-3 0  9997
2 35765  74.1237  20.8838 0144149 257.0109 101.4925 14.52479733522116
0 COSMOS 2251 DEB
1 35776U 93036ARW 19116.59465070 +.00000967 +00000-0 +19698-3 0  9991
2 35776 074.0080 213.0465 0330863 079.6707 284.1562 14.33089031264641
0 COSMOS 2251 DEB
1 35782U 93036ASC 19116.03061371 +.00003789 +00000-0 +38215-3 0  9994
2 35782 073.9721 005.5895 0023906 108.2885 252.0901 14.91287582321787
0 COSMOS 2251 DEB
1 35782U 93036ASC 19117.37229910  .00002995  00000-0  30280-3 0  9999
2 35782  73.9718   2.8874 0024158 105.2578 255.1277 14.91294788526756
0 COSMOS 2251 DEB
1 35785U 93036ASF 19117.35411928  .00001344  00000-0  37403-3 0  9993
2 35785  73.9475   4.7170 0059995 294.5438  64.9473 14.46370328519327
0 COSMOS 2251 DEB
1 35788U 93036ASJ 19116.37364036 +.00001186 +00000-0 +27091-3 0  9990
2 35788 074.0184 254.7961 0021817 255.6401 104.2341 14.56758083520811
0 COSMOS 2251 DEB
1 35788U 93036ASJ 19117.06037701  .00001186  00000-0  27089-3 0  9990
2 35788  74.0184 253.4910 0021841 254.2343 105.6412 14.56759769525617
0 COSMOS 2251 DEB
1 35789U 93036ASK 19116.19625772 +.00000042 +00000-0 +23966-4 0  9996
2 35789 074.0412 042.4225 0048703 013.4222 346.8212 14.34326606264820
0 COSMOS 2251 DEB
1 35789U 93036ASK 19117.45170139  .00000033  00000-0  20645-4 0  9999
2 35789  74.0412  40.1247 0048753  10.8151 349.4036 14.34326772516317
0 IRIDIUM 33 DEB
1 35800U 97051SJ  19117.60068018  .00003457  00000-0  29308-3 0  9990
2 35800  86.2637 225.5780 0021598  17.2929 342.9032 14.97461983533965
0 IRIDIUM 33 DEB
1 35806U 97051SQ  19117.34852653  .00000504  00000-0  15607-3 0  9990
2 35806  86.3494 342.4717 0017622 157.3106 202.8875 14.39187859514329
0 PALAPA D
1 35812U 09046A   19116.09241363 -.00000371 +00000-0 +00000-0 0  9996
2 35812 000.0076 247.6543 0002531 178.6414 293.7309 01.00270466035510
0 PALAPA D
1 35812U 09046A   19117.08968070 -.00000369  00000-0  00000+0 0  9993
2 35812   0.0065 244.5988 0002515 183.5759 291.8521  1.00270099 35524
0 ATLAS 5 CENTAUR R/B
1 35816U 09047B   19116.15059819 -.00000025 +00000-0 +00000-0 0  9997
2 35816 023.2831 119.1398 5184267 130.9577 287.1942 01.94976307000448
0 COSMOS 2251 DEB
1 35822U 93036ASU 19116.90196501 +.00026973 +00000-0 +96665-3 0  9992
2 35822 074.0159 050.7484 0010489 239.6638 120.3527 15.28575724525205
0 COSMOS 2251 DEB
1 35822U 93036ASU 19117.88367812  .00030575  00000-0  10929-2 0  9996
2 35822  74.0151  48.6605 0010296 237.2596 122.7614 15.28639132526029
0 COSMOS 2251 DEB
1 35824U 93036ASW 19117.57319110 -.00000009  00000-0  10650-4 0  9995
2 35824  73.8472 211.3105 0278207   5.0437 355.3381 13.80203588507630
0 COSMOS 2251 DEB
1 35836U 93036ATJ 19116.06932017 +.00000452 +00000-0 +14636-3 0  9996
2 35836 074.0442 029.5127 0044160 329.6114 030.2482 14.41253567284455
0 COSMOS 2251 DEB
1 35836U 93036ATJ 19117.17990974  .00000480  00000-0  15493-3 0  9998
2 35836  74.0442  27.4572 0044149 327.3963  32.4467 14.41254965524985
0 COSMOS 2251 DEB
1 35837U 93036ATK 19117.52617104 -.00000387  00000-0 -31512-3 0  9997
2 35837  73.7335 187.1036 0477117  87.1225 336.5087 13.44946688488841
0 COSMOS 2251 DEB
1 35839U 93036ATM 19116.18732845 +.00000683 +00000-0 +15227-3 0  9992
2 35839 074.2393 293.7072 0034047 116.1308 005.6251 14.58396694529398
0 COSMOS 2251 DEB
1 35840U 93036ATN 19117.00265263  .00000562  00000-0  25346-3 0  9990
2 35840  73.9408 225.8730 0148294 285.1087  73.3691 14.18875841515556
0 COSMOS 2251 DEB
1 35841U 93036ATP 19116.10025126 +.00002331 +00000-0 +22091-3 0  9993
2 35841 074.0459 029.2250 0110906 320.0674 039.2386 14.89704885278351
0 IRIDIUM 33 DEB
1 35844U 97051SU  19117.12483548  .00007972  00000-0  62285-3 0  9991
2 35844  86.3003 255.3149 0018550 176.5802 183.5561 15.00830409521684
0 IRIDIUM 33 DEB
1 35850U 97051TA  19116.86292423 +.00000622 +00000-0 +15700-3 0  9993
2 35850 086.3580 324.6276 0021728 107.2411 253.1174 14.49372900361090
0 IRIDIUM 33 DEB
1 35853U 97051TD  19116.03415750 +.00001960 +00000-0 +45570-3 0  9999
2 35853 086.3070 332.0695 0062189 170.8691 189.3663 14.53229148507799
0 IRIDIUM 33 DEB
1 35862U 97051TN  19117.00956103  .00002219  00000-0  30650-3 0  9990
2 35862  86.3756 312.6861 0025522 218.9405 273.1250 14.77450726520014
0 METEOR-M
1 35865U 09049A   19117.53668552  .00000024  00000-0  29673-4 0  9995
2 35865  98.4119 118.0786 0001977 359.1257   0.9918 14.22192497498669
